[
  {
    "OBJECT_NAME": "METEOR-M2 4",
    "OBJECT_ID": "2024-039A",
    "EPOCH": "2025-06-07T21:15:14.834304",
    "MEAN_MOTION": 14.22367605,
    "ECCENTRICITY": 0.0007213,
    "INCLINATION": 98.6492,
    "RA_OF_ASC_NODE": 119.0542,
    "ARG_OF_PERICENTER": 164.4086,
    "MEAN_ANOMALY": 195.7316,
    "EPHEMERIS_TYPE": 0,
    "CLASSIFICATION_TYPE": "U",
    "NORAD_CAT_ID": 59051,
    "ELEMENT_SET_NO": 999,
    "REV_AT_EPOCH": 6605,
    "BSTAR": 2.0468e-05,
    "MEAN_MOTION_DOT": 2e-08,
    "MEAN_MOTION_DDOT": 0
  },
  {
    "OBJECT_NAME": "GOES 19",
    "OBJECT_ID": "2024-119A",
    "EPOCH": "2025-06-07T13:35:29.824224",
    "MEAN_MOTION": 1.00269332,
    "ECCENTRICITY": 3.18e-05,
    "INCLINATION": 0.02,
    "RA_OF_ASC_NODE": 79.0824,
    "ARG_OF_PERICENTER": 47.6398,
    "MEAN_ANOMALY": 258.1529,
    "EPHEMERIS_TYPE": 0,
    "CLASSIFICATION_TYPE": "U",
    "NORAD_CAT_ID": 60133,
    "ELEMENT_SET_NO": 999,
    "REV_AT_EPOCH": 320,
    "BSTAR": 0,
    "MEAN_MOTION_DOT": -2.3e-06,
    "MEAN_MOTION_DDOT": 0
  }
]