59051,METEOR-M2 4,2024,101.24,-1.0,+,98.65,Active,0,LEO,Russia,Russia/USSR,Unknown,Unknown,Unknown,1 59051U 24039A   25158.88558836  .00000002  00000+0  20468-4 0  9995,2 59051  98.6492 119.0542 0007213 164.4086 195.7316 14.22367605 66059,14.22367605,0.0007213,LEO
60133,GOES 19,2024,1436.13,-1.0,+,0.02,Active,0,GSO,USA,USA,Unknown,Unknown,Unknown,1 60133U 24119A   25158.56631741 -.00000230  00000+0  00000+0 0  9998,2 60133   0.0200  79.0824 0000318  47.6398 258.1529  1.00269332  3209,1.00269332,3.18e-05,GEO
